[{"OBJECT_NAME":"SITRO-AIS 27","OBJECT_ID":"2024-039T","EPOCH":"2026-03-09T23:22:19.197120","MEAN_MOTION":14.92842486,"ECCENTRICITY":0.01447292,"INCLINATION":95.3935,"RA_OF_ASC_NODE":167.0882,"ARG_OF_PERICENTER":314.6456,"MEAN_ANOMALY":44.3041,"EPHEMERIS_TYPE":0,"CLASSIFICATION_TYPE":"U","NORAD_CAT_ID":59068,"ELEMENT_SET_NO":999,"REV_AT_EPOCH":10993,"BSTAR":0.00034082381,"MEAN_MOTION_DOT":4.294e-5,"MEAN_MOTION_DDOT":0},{"OBJECT_NAME":"OBJECT C","OBJECT_ID":"2024-174C","EPOCH":"2026-03-07T05:41:36.519936","MEAN_MOTION":15.21181447,"ECCENTRICITY":0.0009601,"INCLINATION":97.4469,"RA_OF_ASC_NODE":75.6508,"ARG_OF_PERICENTER":198.0637,"MEAN_ANOMALY":162.0259,"EPHEMERIS_TYPE":0,"CLASSIFICATION_TYPE":"U","NORAD_CAT_ID":61240,"ELEMENT_SET_NO":999,"REV_AT_EPOCH":8020,"BSTAR":0.00020676,"MEAN_MOTION_DOT":4.544e-5,"MEAN_MOTION_DDOT":0}]
